NORAD_CAT_ID,OBJECT_NAME,OBJECT_TYPE,EPOCH,MEAN_MOTION,ECCENTRICITY,INCLINATION,RA_OF_ASC_NODE,ARG_OF_PERICENTER,MEAN_ANOMALY,BSTAR,MEAN_MOTION_DOT,MEAN_MOTION_DDOT,TLE_LINE0,TLE_LINE1,TLE_LINE2,SEMIMAJOR_AXIS,PERIOD,APOGEE,PERIGEE,DECAYED
49428.0,STARLINK-3121,PAYLOAD,2023-02-08 20:07:43,15.0884674,0.0001245,53.2136,238.7775,94.6487,265.4647,0.0001121,1.497e-05,0.0,0 STARLINK-3121,1 49428U 21104W   23039.83870311  .00001497  00000-0  11210-3 0  9992,2 49428  53.2136 238.7775 0001245  94.6487 265.4647 15.08846740 68829,6917.86,95.437,540.586,538.864,0.0
49428.0,STARLINK-3121,PAYLOAD,2023-02-09 12:01:35,15.0883543,0.0001156,53.2139,235.8038,95.9251,264.1872,5.4107e-05,5.73e-06,0.0,0 STARLINK-3121,1 49428U 21104W   23040.50110902  .00000573  00000-0  54107-4 0  9998,2 49428  53.2139 235.8038 0001156  95.9251 264.1872 15.08835430 68927,6917.894,95.438,540.559,538.96,0.0
49428.0,STARLINK-3121,PAYLOAD,2023-02-09 19:58:31,15.08840716,0.0001213,53.2122,234.3166,92.3398,267.7733,6.2465e-05,7.06e-06,0.0,0 STARLINK-3121,1 49428U 21104W   23040.83230676  .00000706  00000-0  62465-4 0  9999,2 49428  53.2122 234.3166 0001213  92.3398 267.7733 15.08840716 70046,6917.878,95.438,540.582,538.904,0.0
49428.0,STARLINK-3121,PAYLOAD,2023-02-09 23:09:17,15.08846853,0.0001182,53.213,233.7201,93.3418,266.7709,0.00015167,2.127e-05,0.0,0 STARLINK-3121,1 49428U 21104W   23040.96478354  .00002127  00000-0  15167-3 0  9995,2 49428  53.2130 233.7201 0001182  93.3418 266.7709 15.08846853 68998,6917.859,95.437,540.542,538.907,0.0
49428.0,STARLINK-3121,PAYLOAD,2023-02-10 16:38:32,15.08833307,0.0001158,53.2133,230.4473,73.2212,286.8907,0.00028827,4.302e-05,0.0,0 STARLINK-3121,1 49428U 21104W   23041.69343292  .00004302  00000-0  28827-3 0  9992,2 49428  53.2133 230.4473 0001158  73.2212 286.8907 15.08833307 69105,6917.901,95.438,540.567,538.965,0.0
49428.0,STARLINK-3121,PAYLOAD,2023-02-11 05:21:37,15.08841032,0.0001171,53.2136,228.0697,87.0951,273.0175,7.1356e-05,8.48e-06,0.0,0 STARLINK-3121,1 49428U 21104W   23042.22334856  .00000848  00000-0  71356-4 0  9995,2 49428  53.2136 228.0697 0001171  87.0951 273.0175 15.08841032 70254,6917.877,95.437,540.552,538.932,0.0
49428.0,STARLINK-3121,PAYLOAD,2023-02-12 06:47:47,15.088451,0.0001265,53.2133,223.3148,92.7344,267.3793,8.0361e-06,-1.6e-06,0.0,0 STARLINK-3121,1 49428U 21104W   23043.28318949 -.00000160  00000-0  80361-5 0  9992,2 49428  53.2133 223.3148 0001265  92.7344 267.3793 15.08845100 70413,6917.865,95.437,540.605,538.855,0.0
49428.0,STARLINK-3121,PAYLOAD,2023-02-12 13:09:20,15.0884128,0.0001092,53.2134,222.1245,92.5891,267.5226,0.00016979,2.416e-05,0.0,0 STARLINK-3121,1 49428U 21104W   23043.54815254  .00002416  00000-0  16979-3 0  9999,2 49428  53.2134 222.1245 0001092  92.5891 267.5226 15.08841280 69384,6917.876,95.437,540.497,538.986,0.0
49428.0,STARLINK-3121,PAYLOAD,2023-02-12 19:30:51,15.08870544,0.0001213,53.2131,220.935,86.907,273.2061,0.00051311,7.894e-05,0.0,0 STARLINK-3121,1 49428U 21104W   23043.81309527  .00007894  00000-0  51311-3 0  9994,2 49428  53.2131 220.9350 0001213  86.9070 273.2061 15.08870544 70495,6917.787,95.436,540.491,538.813,0.0
49428.0,STARLINK-3121,PAYLOAD,2023-02-13 05:03:11,15.08845943,0.0001587,53.2134,219.1513,76.6373,283.4796,0.00014924,2.088e-05,0.0,0 STARLINK-3121,1 49428U 21104W   23044.21054746  .00002088  00000-0  14924-3 0  9998,2 49428  53.2134 219.1513 0001587  76.6373 283.4796 15.08845943 70555,6917.862,95.437,540.825,538.629,0.0
49428.0,STARLINK-3121,PAYLOAD,2023-02-13 13:00:07,15.08828587,0.0001222,53.213,217.6633,81.3826,278.7304,-7.2829e-05,-1.446e-05,0.0,0 STARLINK-3121,1 49428U 21104W   23044.54175550 -.00001446  00000-0 -72829-4 0  9999,2 49428  53.2130 217.6633 0001222  81.3826 278.7304 15.08828587 70602,6917.915,95.438,540.626,538.935,0.0
49428.0,STARLINK-3121,PAYLOAD,2023-02-14 11:15:31,15.08840501,0.0001163,53.2128,213.499,85.0212,275.0913,0.00011241,1.502e-05,0.0,0 STARLINK-3121,1 49428U 21104W   23045.46911221  .00001502  00000-0  11241-3 0  9995,2 49428  53.2128 213.4990 0001163  85.0212 275.0913 15.08840501 70744,6917.879,95.438,540.548,538.939,0.0
49428.0,STARLINK-3121,PAYLOAD,2023-02-14 14:26:17,15.08843883,0.0001199,53.2127,212.9042,85.1631,274.9498,0.00015985,2.257e-05,0.0,0 STARLINK-3121,1 49428U 21104W   23045.60159070  .00002257  00000-0  15985-3 0  9994,2 49428  53.2127 212.9042 0001199  85.1631 274.9498 15.08843883 69694,6917.869,95.437,540.563,538.904,0.0
49428.0,STARLINK-3121,PAYLOAD,2023-02-15 11:06:18,15.08844815,0.0001507,53.2124,209.0385,74.2001,285.9157,0.00037685,5.715e-05,0.0,0 STARLINK-3121,1 49428U 21104W   23046.46271154  .00005715  00000-0  37685-3 0  9990,2 49428  53.2124 209.0385 0001507  74.2001 285.9157 15.08844815 69826,6917.866,95.437,540.773,538.688,0.0
49428.0,STARLINK-3121,PAYLOAD,2023-02-15 17:27:49,15.08867229,0.0001337,53.2123,207.8481,71.8549,288.2589,0.00067449,0.00010471,0.0,0 STARLINK-3121,1 49428U 21104W   23046.72766082  .00010471  00000-0  67449-3 0  9994,2 49428  53.2123 207.8481 0001337  71.8549 288.2589 15.08867229 70932,6917.797,95.436,540.587,538.737,0.0
49428.0,STARLINK-3121,PAYLOAD,2023-02-16 06:10:55,15.08852056,9.66e-05,53.2136,205.4708,37.2791,322.8268,0.00018749,2.698e-05,0.0,0 STARLINK-3121,1 49428U 21104W   23047.25758339  .00002698  00000-0  18749-3 0  9990,2 49428  53.2136 205.4708 0000966  37.2791 322.8268 15.08852056 71015,6917.844,95.437,540.377,539.04,0.0
49428.0,STARLINK-3121,PAYLOAD,2023-02-16 12:32:27,15.08844492,0.0001455,53.2122,204.2806,84.1113,276.0045,7.1888e-06,-1.74e-06,0.0,0 STARLINK-3121,1 49428U 21104W   23047.52254546 -.00000174  00000-0  71888-5 0  9994,2 49428  53.2122 204.2806 0001455  84.1113 276.0045 15.08844492 69980,6917.867,95.437,540.738,538.725,0.0
49428.0,STARLINK-3121,PAYLOAD,2023-02-16 17:18:36,15.08854543,0.0001341,53.2123,203.3889,80.7694,279.3449,0.00025932,3.843e-05,0.0,0 STARLINK-3121,1 49428U 21104W   23047.72126105  .00003843  00000-0  25932-3 0  9997,2 49428  53.2123 203.3889 0001341  80.7694 279.3449 15.08854543 70010,6917.836,95.437,540.629,538.773,0.0
49428.0,STARLINK-3121,PAYLOAD,2023-02-17 06:01:42,15.08830532,8.91e-05,53.2125,201.0112,66.4306,293.6779,-0.00029399,-4.962e-05,0.0,0 STARLINK-3121,1 49428U 21104W   23048.25118779 -.00004962  00000-0 -29399-3 0  9990,2 49428  53.2125 201.0112 0000891  66.4306 293.6779 15.08830532 71160,6917.909,95.438,540.391,539.158,0.0
49428.0,STARLINK-3121,PAYLOAD,2023-02-17 12:23:16,15.08842993,9.65e-05,53.2151,199.8214,41.7143,318.3922,-0.00029396,-4.963e-05,0.0,0 STARLINK-3121,1 49428U 21104W   23048.51615949 -.00004963  00000-0 -29396-3 0  9998,2 49428  53.2151 199.8214 0000965  41.7143 318.3922 15.08842993 70138,6917.871,95.437,540.404,539.069,0.0
49428.0,STARLINK-3121,PAYLOAD,2023-02-17 17:09:25,15.08841136,9.96e-05,53.2142,198.9284,72.132,287.9781,-0.00015916,-2.82e-05,0.0,0 STARLINK-3121,1 49428U 21104W   23048.71487633 -.00002820  00000-0 -15916-3 0  9990,2 49428  53.2142 198.9284 0000996  72.1320 287.9781 15.08841136 70169,6917.877,95.437,540.431,539.053,0.0
49428.0,STARLINK-3121,PAYLOAD,2023-02-18 09:03:17,15.0882395,9.46e-05,53.215,195.955,96.9778,263.1322,8.4937e-05,1.064e-05,0.0,0 STARLINK-3121,1 49428U 21104W   23049.37728395  .00001064  00000-0  84937-4 0  9993,2 49428  53.2150 195.9550 0000946  96.9778 263.1322 15.08823950 71338,6917.929,95.439,540.449,539.14,0.0
49428.0,STARLINK-3121,PAYLOAD,2023-02-18 12:14:03,15.08826784,0.0001005,53.2146,195.3604,93.6297,266.4811,0.0001018,1.332e-05,0.0,0 STARLINK-3121,1 49428U 21104W   23049.50976300  .00001332  00000-0  10180-3 0  9995,2 49428  53.2146 195.3604 0001005  93.6297 266.4811 15.08826784 70284,6917.921,95.438,540.481,539.091,0.0
49428.0,STARLINK-3121,PAYLOAD,2023-02-19 04:07:54,15.0883811,9.43e-05,53.2137,192.3866,68.4034,291.7058,0.00024029,3.538e-05,0.0,0 STARLINK-3121,1 49428U 21104W   23050.17216063  .00003538  00000-0  24029-3 0  9990,2 49428  53.2137 192.3866 0000943  68.4034 291.7058 15.08838110 71450,6917.886,95.438,540.404,539.099,0.0
49428.0,STARLINK-3121,PAYLOAD,2023-02-19 13:40:13,15.08843039,4.57e-05,53.2152,190.6019,80.9622,279.1422,0.00037692,5.717e-05,0.0,0 STARLINK-3121,1 49428U 21104W   23050.56959851  .00005717  00000-0  37692-3 0  9993,2 49428  53.2152 190.6019 0000457  80.9622 279.1422 15.08843039 70449,6917.871,95.437,540.052,539.42,0.0
49428.0,STARLINK-3121,PAYLOAD,2023-02-19 15:15:35,15.08859347,8.51e-05,53.2153,190.3013,125.0936,235.0136,0.00060233,9.316e-05,0.0,0 STARLINK-3121,1 49428U 21104W   23050.63582852  .00009316  00000-0  60233-3 0  9990,2 49428  53.2153 190.3013 0000851 125.0936 235.0136 15.08859347 71520,6917.821,95.436,540.275,539.098,0.0
49428.0,STARLINK-3121,PAYLOAD,2023-02-19 16:50:58,15.08869091,0.0001004,53.2137,190.0058,87.2366,272.8741,0.00071616,0.00011137,0.0,0 STARLINK-3121,1 49428U 21104W   23050.70206470  .00011137  00000-0  71616-3 0  9998,2 49428  53.2137 190.0058 0001004  87.2366 272.8741 15.08869091 71534,6917.791,95.436,540.351,538.962,0.0
49428.0,STARLINK-3121,PAYLOAD,2023-02-20 07:09:28,15.08831215,0.0001207,53.2136,187.3312,74.2187,285.8938,-7.5221e-05,-1.484e-05,0.0,0 STARLINK-3121,1 49428U 21104W   23051.29824304 -.00001484  00000-0 -75221-4 0  9998,2 49428  53.2136 187.3312 0001207  74.2187 285.8938 15.08831215 71626,6917.907,95.438,540.607,538.937,0.0
49428.0,STARLINK-3121,PAYLOAD,2023-02-20 13:31:00,15.08837082,0.0001122,53.2136,186.1408,82.9765,277.1354,-7.1873e-05,-1.431e-05,0.0,0 STARLINK-3121,1 49428U 21104W   23051.56319845 -.00001431  00000-0 -71873-4 0  9998,2 49428  53.2136 186.1408 0001122  82.9765 277.1354 15.08837082 70592,6917.889,95.438,540.53,538.978,0.0
49428.0,STARLINK-3121,PAYLOAD,2023-02-20 15:06:23,15.08849577,0.0001205,53.2129,185.8434,79.284,280.8288,0.00016598,2.355e-05,0.0,0 STARLINK-3121,1 49428U 21104W   23051.62943355  .00002355  00000-0  16598-3 0  9990,2 49428  53.2129 185.8434 0001205  79.2840 280.8288 15.08849577 71673,6917.851,95.437,540.55,538.883,0.0
